0 IRIDIUM 33 DEB
1 38035U 97051YX  13282.30487886  .00012116  00000-0  27030-2 0  2067
2 38035 086.3724 119.0370 0004609 185.0250 175.0281 14.56753615156034
0 IRIDIUM 33 DEB
1 38035U 97051YX  13283.81605510  .00012510  00000-0  27882-2 0  2074
2 38035 086.3720 118.3592 0004256 229.5525 130.6502 14.56797945156256
0 IRIDIUM 33 DEB
1 38035U 97051YX  13285.80794771  .00014543  00000-0  32358-2 0  2097
2 38035 086.3564 117.4979 0005150 319.0822 041.1255 14.56872048156541
0 IRIDIUM 33 DEB
1 38035U 97051YX  13287.25027710  .00016752  00000-0  37145-2 0  2105
2 38035 086.3941 116.8630 0017144 173.5774 186.9376 14.56938932156752
0 IRIDIUM 33 DEB
1 38035U 97051YX  13289.24192507  .00018907  00000-0  41915-2 0  2118
2 38035 086.3673 115.9871 0003744 191.2899 168.9104 14.57028298157045
0 IRIDIUM 33 DEB
1 38035U 97051YX  13290.82145149  .00019582  00000-0  43349-2 0  2128
2 38035 086.3588 115.2927 0003102 277.6476 082.4777 14.57095012157272
0 IRIDIUM 33 DEB
1 38035U 97051YX  13292.26357027  .00020928  00000-0  46192-2 0  2134
2 38035 086.3879 114.6727 0013941 166.9081 193.4797 14.57167061157482
0 IRIDIUM 33 DEB
1 38035U 97051YX  13292.81288801  .00021422  00000-0  47281-2 0  2149
2 38035 086.3795 114.4256 0009774 171.1639 188.9969 14.57195393157568
0 IRIDIUM 33 DEB
1 38035U 97051YX  13294.25491023  .00022570  00000-0  49739-2 0  2157
2 38035 086.3775 113.8014 0008500 158.7430 201.4584 14.57267441157778
0 IRIDIUM 33 DEB
1 38035U 97051YX  13295.76551977  .00022659  00000-0  49869-2 0  2162
2 38035 086.3742 113.1390 0007523 152.6327 207.5239 14.57335535157992
